STARLINK-3608           
1 51776U 22017J   22078.91668981 -.00007113  00000+0 -46260-4 0  9990
2 51776  53.2192  33.3764 0001201  57.6630 136.9450 15.73223223  3727
STARLINK-3625           
1 51777U 22017K   22078.91668981  .00048867  00000+0  35092-3 0  9990
2 51777  53.2187  33.3781 0001036  67.3824 125.9054 15.73176779  3709
STARLINK-3615           
1 51778U 22017L   22078.91668981  .00038677  00000+0  27854-3 0  9996
2 51778  53.2211  33.0280 0000993  68.3963 298.3753 15.73215549  3749
STARLINK-3611           
1 51779U 22017M   22078.91668981  .00047234  00000+0  33923-3 0  9990
2 51779  53.2197  33.3741 0001197  61.8347 133.3859 15.73188880  3729
STARLINK-3617           
1 51780U 22017N   22078.91668981  .00044752  00000+0  32173-3 0  9990
2 51780  53.2181  33.3698 0001185  76.1556 121.6332 15.73189331  3721
STARLINK-3580           
1 51781U 22017P   22078.91668981  .00045752  00000+0  32883-3 0  9990
2 51781  53.2195  33.3730 0001233  68.6559 127.1779 15.73185681  3727
STARLINK-3616           
1 51782U 22017Q   22078.91668981 -.00717409  00000+0 -57878-2 0  9998
2 51782  53.2176  33.3515 0001327  59.8284 138.6341 15.72257554  3729
STARLINK-3628           
1 51783U 22017R   22078.91668981  .00049621  00000+0  35589-3 0  9997
2 51783  53.2187  33.3708 0001063  78.3119 118.8213 15.73199608  3708
STARLINK-3632           
1 51784U 22017S   22078.91668981 -.00717455  00000+0 -57565-2 0  9994
2 51784  53.2176  33.3508 0001392  54.0287 145.3393 15.72385386  3700
STARLINK-3646           
1 51785U 22017T   22078.91668981  .00048114  00000+0  34546-3 0  9997
2 51785  53.2188  33.3680 0001151  66.6175 131.7938 15.73187347  3705
STARLINK-3638           
1 51786U 22017U   22078.91668981 -.00717523  00000+0 -56945-2 0  9993
2 51786  53.2176  33.3492 0001306  64.4400 136.6236 15.72641046  3708
STARLINK-3619           
1 51787U 22017V   22078.91668981 -.00717214  00000+0 -58175-2 0  9998
2 51787  53.2175  33.3520 0001487  49.4997 148.0191 15.72129650  3725
STARLINK-3641           
1 51788U 22017W   22078.91668981 -.00718857  00000+0 -56124-2 0  9995
2 51788  53.2176  33.3462 0001329  62.2851 141.0331 15.73025546  3706
STARLINK-3639           
1 51789U 22017X   22078.91668981 -.00717601  00000+0 -57266-2 0  9990
2 51789  53.2176  33.3499 0001241  70.0514 130.1835 15.72513281  3708
STARLINK-3631           
1 51790U 22017Y   22078.91668981 -.00673345  00000+0 -52067-2 0  9992
2 51790  53.2175  33.3460 0001186  78.5872 125.4176 15.73123222  3703
STARLINK-3602           
1 51791U 22017Z   22078.91668981 -.00717647  00000+0 -56643-2 0  9991
2 51791  53.2176  33.3481 0001348  57.5090 144.3447 15.72768907  3702
STARLINK-3626           
1 51792U 22017AA  22078.91668981  .00456902  00000+0  31698-2 0  9997
2 51792  53.2176  33.3444 0001146  57.0120 148.7009 15.72569292  3705
STARLINK-3633           
1 51793U 22017AB  22078.91668981 -.00717668  00000+0 -56334-2 0  9993
2 51793  53.2176  33.3471 0001364  57.2096 145.3959 15.72896738  3707
STARLINK-3573           
1 51794U 22017AC  22078.91668981 -.00347072  00000+0 -25671-2 0  9992
2 51794  53.2179  33.3445 0001039  85.6490 121.0313 15.73244442  3721
STARLINK-3586           
1 51795U 22017AD  22078.91668981 -.00341097  00000+0 -25303-2 0  9996
2 51795  53.2175  33.3443 0001175  74.7596 131.3230 15.73158678  3720
STARLINK-3630           
1 51796U 22017AE  22078.91668981 -.00717240  00000+0 -59331-2 0  9992
2 51796  53.2176  33.3302 0001303  65.8955 139.7902 15.71670501  3707
STARLINK-3627           
1 51797U 22017AF  22078.91668981 -.00389600  00000+0 -29214-2 0  9995
2 51797  53.2174  33.3456 0001188  74.3121 130.4353 15.73045762  3702
STARLINK-3634           
1 51798U 22017AG  22078.91668981 -.00717389  00000+0 -59022-2 0  9995
2 51798  53.2175  33.3298 0001316  60.7523 146.0151 15.71798375  3708
STARLINK-3637           
1 51799U 22017AH  22078.91668981 -.00615719  00000+0 -46628-2 0  9998
2 51799  53.2179  33.3436 0001144  67.1723 140.1116 15.73447149  3707
STARLINK-3600           
1 51800U 22017AJ  22078.91668981 -.00717513  00000+0 -58480-2 0  9995
2 51800  53.2176  33.3287 0001241  73.2830 135.4382 15.72019734  3702
STARLINK-3592           
1 51801U 22017AK  22078.91668981 -.00717275  00000+0 -59658-2 0  9999
2 51801  53.2175  33.3305 0001270  69.2366 135.3289 15.71542717  3722
STARLINK-3557           
1 51802U 22017AL  22078.91668981 -.00635376  00000+0 -48867-2 0  9991
2 51802  53.2175  33.3310 0001184  85.2631 126.4234 15.73142708  3725
STARLINK-3544           
1 51803U 22017AM  22078.91668981 -.00717504  00000+0 -58712-2 0  9996
2 51803  53.2176  33.3293 0001287  63.5344 144.2764 15.71926248  3724
STARLINK-3601           
1 51804U 22017AN  22078.91668981 -.00000142  00000+0  34000-5 0  9996
2 51804  53.2208  33.3240 0001051  67.0922 155.2568 15.73235132  3702
STARLINK-3605           
1 51805U 22017AP  22078.91668981  .00054435  00000+0  38988-3 0  9997
2 51805  53.2182  33.3426 0001268  74.4367 136.7689 15.73192822  3723
STARLINK-3581           
1 51806U 22017AQ  22078.91668981  .00046573  00000+0  33497-3 0  9992
2 51806  53.2189  33.3367 0000972  73.2144 141.1771 15.73161241  3729
STARLINK-3606           
1 51807U 22017AR  22078.91668981  .00047830  00000+0  34357-3 0  9996
2 51807  53.2189  33.3398 0001427  80.9663 131.4655 15.73179394  3722
STARLINK-3609           
1 51808U 22017AS  22078.91668981  .00008607  00000+0  65584-4 0  9993
2 51808  53.2190  33.3339 0000888  86.8520 128.7571 15.73232129  3729
STARLINK-3607           
1 51809U 22017AT  22078.91668981  .00047247  00000+0  33973-3 0  9993
2 51809  53.2185  33.3388 0001001  81.1303 131.9516 15.73160905  3720
STARLINK-3613           
1 51810U 22017AU  22078.91668981  .00044359  00000+0  31997-3 0  9990
2 51810  53.2188  33.3313 0001129  61.2385 155.7179 15.73114511  3724
STARLINK-3569           
1 51811U 22017AV  22078.91668981  .00128041  00000+0  90632-3 0  9993
2 51811  53.2187  33.3346 0001301  86.3672 128.6577 15.73110932  3701
STARLINK-3610           
1 51812U 22017AW  22078.91668981  .00047719  00000+0  34220-3 0  9997
2 51812  53.2186  33.3304 0001471  94.6973 122.8233 15.73219591  3727
STARLINK-3552           
1 51813U 22017AX  22078.91668981  .00044170  00000+0  31791-3 0  9996
2 51813  53.2185  33.3323 0001452  94.5651 121.7311 15.73168068  3726
STARLINK-3599           
1 51814U 22017AY  22078.91668981 -.00004604  00000+0 -28333-4 0  9996
2 51814  53.2192  33.3281 0001088  90.3120 128.5077 15.73259278  3726
STARLINK-3604           
1 51815U 22017AZ  22078.91668981  .00045887  00000+0  33009-3 0  9998
2 51815  53.2184  33.3282 0001514  74.4363 143.7655 15.73163432  3722
STARLINK-3603           
1 51816U 22017BA  22078.91668981  .00008072  00000+0  61795-4 0  9998
2 51816  53.2190  33.3266 0000950  89.1067 130.3548 15.73229255  3728
STARLINK-3596           
1 51817U 22017BB  22078.86075615 -.00047673  00000+0 -18524-3 0  9992
2 51817  53.2219  31.9322 0007786 274.2998  85.7138 15.86184221  4751
FALCON 9 DEB            
1 51818U 22017BC  22078.87590144  .00233242  32435-4  57856-3 0  9993
2 51818  53.2314  31.3152 0003723 344.8234  15.2684 15.95479411  3534
FALCON 9 DEB            
1 51819U 22017BD  22078.86520197  .00277011  41959-4  62940-3 0  9997
2 51819  53.2284  31.2380 0002200 292.1927  67.8870 15.97052678  3530
FALCON 9 DEB            
1 51820U 22017BE  22078.59883735  .00268246  40525-4  56775-3 0  9996
2 51820  53.2250  32.4030 0006046 300.9888  59.0549 15.98302737  3492
FALCON 9 DEB            
1 51821U 22017BF  22078.84587400  .00290138  45680-4  60777-3 0  9994
2 51821  53.2215  31.0923 0005480 278.1169  81.9241 15.98477037  3533
L-SAR 01B               
1 51822U 22018A   22078.87014970 -.00000289  00000+0 -25285-4 0  9992
2 51822  97.8099  87.5169 0001680  86.3476 273.7928 14.88412281  3108
CZ-4C R/B               
1 51823U 22018B   22078.96826388  .00005398  00000+0  20073-3 0  9990
2 51823  97.8625  88.8360 0132236 328.9094  30.4359 15.20105675  3192
2022-019A               
1 51824U 22019A   22078.82357641  .00003975  00000+0  25655-3 0  9998
2 51824  97.5195 155.2011 0020685 195.8627 297.2184 15.08663359  3127
2022-019B               
1 51825U 22019B   22078.88587966  .00003328  00000+0  21427-3 0  9995
2 51825  97.5185 155.2651 0018691 191.5804 298.6761 15.08907664  3127
2022-019C               
1 51826U 22019C   22078.88351995  .00004166  00000+0  26570-3 0  9992
2 51826  97.5176 155.2660 0017892 192.8199 299.4139 15.09125214  3123
2022-019D               
1 51827U 22019D   22078.88288756  .00003193  00000+0  20440-3 0  9996
2 51827  97.5194 155.2736 0016687 191.9662 302.1602 15.09176350  3128
2022-019E               
1 51828U 22019E   22078.88242828  .00004130  00000+0  26273-3 0  9999
2 51828  97.5197 155.2737 0017479 193.9311 300.1778 15.09228940  3121
2022-019F               
1 51829U 22019F   22078.87720900  .00006216  00000+0  39207-3 0  9999
2 51829  97.5231 155.2823 0016814 194.1379 277.7272 15.09349796  3127
2022-019G               
1 51830U 22019G   22077.88613806  .00006758  00000+0  42590-3 0  9997
2 51830  97.5172 154.2899 0017603 197.0589 293.1969 15.09341505  2974
2022-019H               
1 51831U 22019H   22078.87294096  .00003846  00000+0  24420-3 0  9991
2 51831  97.5202 155.2656 0017666 202.5937 248.5548 15.09338261  3129
2022-019J               
1 51832U 22019J   22078.87281089  .00003278  00000+0  20867-3 0  9990
2 51832  97.5191 155.2658 0018157 200.3999 250.7506 15.09338636  3124
2022-019K               
1 51833U 22019K   22078.68093436  .00004875  00000+0  30571-3 0  9994
2 51833  97.5176 155.0837 0015745 198.6932 314.1384 15.09687090  3097
2022-019L               
1 51834U 22019L   22078.87243065  .00003903  00000+0  24567-3 0  9990
2 51834  97.5193 155.2830 0016403 198.5744 274.2756 15.09667180  3125
